UNKNOWN                 
1 87054U          26091.47077598  .00001858  00000+0  10522-2 0  9992
2 87054 100.0878 349.3717 0014145  45.6904 314.5421 14.11564517631800
UNKNOWN                 
1 87071U          26088.92028124  .00002926  00000+0  10815-2 0  9990
2 87071  61.2216 312.9934 0471098 291.5906  63.5558 13.86780458617348
UNKNOWN                 
1 87129U          26081.98196708  .00000192  00000+0  17158-2 0  9997
2 87129 102.2545 179.1297 0032929 250.2153 109.5359 12.42864638559125
UNKNOWN                 
1 87159U          26091.19012338  .00001205  00000+0  13982-2 0  9997
2 87159  90.3482  73.3396 0101692 293.5425  65.5077 13.66375068571635
UNKNOWN                 
1 87163U          26086.98075425  .00003849  00000+0  11289-2 0  9993
2 87163  65.6025 336.5828 0646826  17.6352 344.6058 13.64692876591874
UNKNOWN                 
1 87164U          26091.02647237  .00008442  00000+0  16530-2 0  9999
2 87164  65.2056  10.0081 0108212   4.8166 355.3948 14.59600351651712
UNKNOWN                 
1 87204U          26089.56305496  .00002622  00000+0  10230-2 0  9993
2 87204  98.5304 313.2253 0046222   8.5692 351.6269 14.29897781640847
UNKNOWN                 
1 87211U          26088.29117728  .00003753  00000+0  10202-2 0  9994
2 87211  99.0863 100.8308 0052211 200.7713 174.4408 14.47379038723182
UNKNOWN                 
1 87214U          26091.47379515  .00001801  00000+0  16276-2 0  9994
2 87214 100.3299 105.9427 0067716 332.2383  27.5161 13.84363606615427
UNKNOWN                 
1 87237U          26087.13277021  .00000272  00000+0  23857-3 0  9991
2 87237  99.2376 147.3133 0102632 359.8770  27.2449 13.91856287626428
UNKNOWN                 
1 87239U          26091.15483252  .00006569  00000+0  15366-2 0  9995
2 87239  82.8751 349.7593 0021686  49.8736 310.4359 14.54381798643763
UNKNOWN                 
1 87245U          26091.08775354  .00005601  00000+0  11601-2 0  9995
2 87245  65.6395 115.1056 0424702  66.2163 329.7929 14.16924630629693
