CCSDS_OMM_VERS = 2.0
CREATION_DATE  = 
ORIGINATOR     = 

OBJECT_NAME    = UNKNOWN
OBJECT_ID      = 
CENTER_NAME    = EARTH
REF_FRAME      = TEME
TIME_SYSTEM    = UTC
MEAN_ELEMENT_THEORY = SGP/SGP4

EPOCH          = 2026-04-01T11:17:55.044672
MEAN_MOTION    = 14.11564517
ECCENTRICITY   = .0014145
INCLINATION    = 100.0878
RA_OF_ASC_NODE = 349.3717
ARG_OF_PERICENTER = 45.6904
MEAN_ANOMALY   = 314.5421

EPHEMERIS_TYPE = 0
CLASSIFICATION_TYPE = U
NORAD_CAT_ID   = 87054
ELEMENT_SET_NO = 999
REV_AT_EPOCH   = 63180
BSTAR          = .10522E-2
MEAN_MOTION_DOT = .1858E-4
MEAN_MOTION_DDOT = 0

CCSDS_OMM_VERS = 2.0
CREATION_DATE  = 
ORIGINATOR     = 

OBJECT_NAME    = UNKNOWN
OBJECT_ID      = 
CENTER_NAME    = EARTH
REF_FRAME      = TEME
TIME_SYSTEM    = UTC
MEAN_ELEMENT_THEORY = SGP/SGP4

EPOCH          = 2026-03-29T22:05:12.299136
MEAN_MOTION    = 13.86780458
ECCENTRICITY   = .0471098
INCLINATION    = 61.2216
RA_OF_ASC_NODE = 312.9934
ARG_OF_PERICENTER = 291.5906
MEAN_ANOMALY   = 63.5558

EPHEMERIS_TYPE = 0
CLASSIFICATION_TYPE = U
NORAD_CAT_ID   = 87071
ELEMENT_SET_NO = 999
REV_AT_EPOCH   = 61734
BSTAR          = .10815E-2
MEAN_MOTION_DOT = .2926E-4
MEAN_MOTION_DDOT = 0

CCSDS_OMM_VERS = 2.0
CREATION_DATE  = 
ORIGINATOR     = 

OBJECT_NAME    = UNKNOWN
OBJECT_ID      = 
CENTER_NAME    = EARTH
REF_FRAME      = TEME
TIME_SYSTEM    = UTC
MEAN_ELEMENT_THEORY = SGP/SGP4

EPOCH          = 2026-03-22T23:34:01.955712
MEAN_MOTION    = 12.42864638
ECCENTRICITY   = .0032929
INCLINATION    = 102.2545
RA_OF_ASC_NODE = 179.1297
ARG_OF_PERICENTER = 250.2153
MEAN_ANOMALY   = 109.5359

EPHEMERIS_TYPE = 0
CLASSIFICATION_TYPE = U
NORAD_CAT_ID   = 87129
ELEMENT_SET_NO = 999
REV_AT_EPOCH   = 55912
BSTAR          = .17158E-2
MEAN_MOTION_DOT = .192E-5
MEAN_MOTION_DDOT = 0

CCSDS_OMM_VERS = 2.0
CREATION_DATE  = 
ORIGINATOR     = 

OBJECT_NAME    = UNKNOWN
OBJECT_ID      = 
CENTER_NAME    = EARTH
REF_FRAME      = TEME
TIME_SYSTEM    = UTC
MEAN_ELEMENT_THEORY = SGP/SGP4

EPOCH          = 2026-04-01T04:33:46.660032
MEAN_MOTION    = 13.66375068
ECCENTRICITY   = .0101692
INCLINATION    = 90.3482
RA_OF_ASC_NODE = 73.3396
ARG_OF_PERICENTER = 293.5425
MEAN_ANOMALY   = 65.5077

EPHEMERIS_TYPE = 0
CLASSIFICATION_TYPE = U
NORAD_CAT_ID   = 87159
ELEMENT_SET_NO = 999
REV_AT_EPOCH   = 57163
BSTAR          = .13982E-2
MEAN_MOTION_DOT = .1205E-4
MEAN_MOTION_DDOT = 0

CCSDS_OMM_VERS = 2.0
CREATION_DATE  = 
ORIGINATOR     = 

OBJECT_NAME    = UNKNOWN
OBJECT_ID      = 
CENTER_NAME    = EARTH
REF_FRAME      = TEME
TIME_SYSTEM    = UTC
MEAN_ELEMENT_THEORY = SGP/SGP4

EPOCH          = 2026-03-27T23:32:17.167200
MEAN_MOTION    = 13.64692876
ECCENTRICITY   = .0646826
INCLINATION    = 65.6025
RA_OF_ASC_NODE = 336.5828
ARG_OF_PERICENTER = 17.6352
MEAN_ANOMALY   = 344.6058

EPHEMERIS_TYPE = 0
CLASSIFICATION_TYPE = U
NORAD_CAT_ID   = 87163
ELEMENT_SET_NO = 999
REV_AT_EPOCH   = 59187
BSTAR          = .11289E-2
MEAN_MOTION_DOT = .3849E-4
MEAN_MOTION_DDOT = 0

CCSDS_OMM_VERS = 2.0
CREATION_DATE  = 
ORIGINATOR     = 

OBJECT_NAME    = UNKNOWN
OBJECT_ID      = 
CENTER_NAME    = EARTH
REF_FRAME      = TEME
TIME_SYSTEM    = UTC
MEAN_ELEMENT_THEORY = SGP/SGP4

EPOCH          = 2026-04-01T00:38:07.212768
MEAN_MOTION    = 14.59600351
ECCENTRICITY   = .0108212
INCLINATION    = 65.2056
RA_OF_ASC_NODE = 10.0081
ARG_OF_PERICENTER = 4.8166
MEAN_ANOMALY   = 355.3948

EPHEMERIS_TYPE = 0
CLASSIFICATION_TYPE = U
NORAD_CAT_ID   = 87164
ELEMENT_SET_NO = 999
REV_AT_EPOCH   = 65171
BSTAR          = .1653E-2
MEAN_MOTION_DOT = .8442E-4
MEAN_MOTION_DDOT = 0

CCSDS_OMM_VERS = 2.0
CREATION_DATE  = 
ORIGINATOR     = 

OBJECT_NAME    = UNKNOWN
OBJECT_ID      = 
CENTER_NAME    = EARTH
REF_FRAME      = TEME
TIME_SYSTEM    = UTC
MEAN_ELEMENT_THEORY = SGP/SGP4

EPOCH          = 2026-03-30T13:30:47.948544
MEAN_MOTION    = 14.29897781
ECCENTRICITY   = .0046222
INCLINATION    = 98.5304
RA_OF_ASC_NODE = 313.2253
ARG_OF_PERICENTER = 8.5692
MEAN_ANOMALY   = 351.6269

EPHEMERIS_TYPE = 0
CLASSIFICATION_TYPE = U
NORAD_CAT_ID   = 87204
ELEMENT_SET_NO = 999
REV_AT_EPOCH   = 64084
BSTAR          = .1023E-2
MEAN_MOTION_DOT = .2622E-4
MEAN_MOTION_DDOT = 0

CCSDS_OMM_VERS = 2.0
CREATION_DATE  = 
ORIGINATOR     = 

OBJECT_NAME    = UNKNOWN
OBJECT_ID      = 
CENTER_NAME    = EARTH
REF_FRAME      = TEME
TIME_SYSTEM    = UTC
MEAN_ELEMENT_THEORY = SGP/SGP4

EPOCH          = 2026-03-29T06:59:17.716992
MEAN_MOTION    = 14.47379038
ECCENTRICITY   = .0052211
INCLINATION    = 99.0863
RA_OF_ASC_NODE = 100.8308
ARG_OF_PERICENTER = 200.7713
MEAN_ANOMALY   = 174.4408

EPHEMERIS_TYPE = 0
CLASSIFICATION_TYPE = U
NORAD_CAT_ID   = 87211
ELEMENT_SET_NO = 999
REV_AT_EPOCH   = 72318
BSTAR          = .10202E-2
MEAN_MOTION_DOT = .3753E-4
MEAN_MOTION_DDOT = 0

CCSDS_OMM_VERS = 2.0
CREATION_DATE  = 
ORIGINATOR     = 

OBJECT_NAME    = UNKNOWN
OBJECT_ID      = 
CENTER_NAME    = EARTH
REF_FRAME      = TEME
TIME_SYSTEM    = UTC
MEAN_ELEMENT_THEORY = SGP/SGP4

EPOCH          = 2026-04-01T11:22:15.900960
MEAN_MOTION    = 13.84363606
ECCENTRICITY   = .0067716
INCLINATION    = 100.3299
RA_OF_ASC_NODE = 105.9427
ARG_OF_PERICENTER = 332.2383
MEAN_ANOMALY   = 27.5161

EPHEMERIS_TYPE = 0
CLASSIFICATION_TYPE = U
NORAD_CAT_ID   = 87214
ELEMENT_SET_NO = 999
REV_AT_EPOCH   = 61542
BSTAR          = .16276E-2
MEAN_MOTION_DOT = .1801E-4
MEAN_MOTION_DDOT = 0

CCSDS_OMM_VERS = 2.0
CREATION_DATE  = 
ORIGINATOR     = 

OBJECT_NAME    = UNKNOWN
OBJECT_ID      = 
CENTER_NAME    = EARTH
REF_FRAME      = TEME
TIME_SYSTEM    = UTC
MEAN_ELEMENT_THEORY = SGP/SGP4

EPOCH          = 2026-03-28T03:11:11.346144
MEAN_MOTION    = 13.91856287
ECCENTRICITY   = .0102632
INCLINATION    = 99.2376
RA_OF_ASC_NODE = 147.3133
ARG_OF_PERICENTER = 359.8770
MEAN_ANOMALY   = 27.2449

EPHEMERIS_TYPE = 0
CLASSIFICATION_TYPE = U
NORAD_CAT_ID   = 87237
ELEMENT_SET_NO = 999
REV_AT_EPOCH   = 62642
BSTAR          = .23857E-3
MEAN_MOTION_DOT = .272E-5
MEAN_MOTION_DDOT = 0

CCSDS_OMM_VERS = 2.0
CREATION_DATE  = 
ORIGINATOR     = 

OBJECT_NAME    = UNKNOWN
OBJECT_ID      = 
CENTER_NAME    = EARTH
REF_FRAME      = TEME
TIME_SYSTEM    = UTC
MEAN_ELEMENT_THEORY = SGP/SGP4

EPOCH          = 2026-04-01T03:42:57.529728
MEAN_MOTION    = 14.54381798
ECCENTRICITY   = .0021686
INCLINATION    = 82.8751
RA_OF_ASC_NODE = 349.7593
ARG_OF_PERICENTER = 49.8736
MEAN_ANOMALY   = 310.4359

EPHEMERIS_TYPE = 0
CLASSIFICATION_TYPE = U
NORAD_CAT_ID   = 87239
ELEMENT_SET_NO = 999
REV_AT_EPOCH   = 64376
BSTAR          = .15366E-2
MEAN_MOTION_DOT = .6569E-4
MEAN_MOTION_DDOT = 0

CCSDS_OMM_VERS = 2.0
CREATION_DATE  = 
ORIGINATOR     = 

OBJECT_NAME    = UNKNOWN
OBJECT_ID      = 
CENTER_NAME    = EARTH
REF_FRAME      = TEME
TIME_SYSTEM    = UTC
MEAN_ELEMENT_THEORY = SGP/SGP4

EPOCH          = 2026-04-01T02:06:21.905856
MEAN_MOTION    = 14.16924630
ECCENTRICITY   = .0424702
INCLINATION    = 65.6395
RA_OF_ASC_NODE = 115.1056
ARG_OF_PERICENTER = 66.2163
MEAN_ANOMALY   = 329.7929

EPHEMERIS_TYPE = 0
CLASSIFICATION_TYPE = U
NORAD_CAT_ID   = 87245
ELEMENT_SET_NO = 999
REV_AT_EPOCH   = 62969
BSTAR          = .11601E-2
MEAN_MOTION_DOT = .5601E-4
MEAN_MOTION_DDOT = 0

